IRIDIUM 126             
1 42809U 17039G   24061.85665499  .00000163  00000+0  51128-4 0  9998
2 42809  86.4024 343.5759 0001845  81.4154 278.7251 14.34216617349931
IRIDIUM 124             
1 42810U 17039H   24062.09051381  .00000441  00000+0  12505-3 0  9990
2 42810  86.4447 280.2139 0002318  90.1021 270.0445 14.43279863354373
IRIDIUM 128             
1 42811U 17039J   24061.91716095  .00000046  00000+0  93945-5 0  9991
2 42811  86.4010  15.0465 0002118  91.0001 269.1437 14.34217836349974
IRIDIUM 121             
1 42812U 17039K   24061.80591404  .00000040  00000+0  71860-5 0  9991
2 42812  86.4023 343.6193 0002114  85.4554 274.6883 14.34216993349804
IRIDIUM 133             
1 42955U 17061A   24061.87910572 -.00000695  00000+0 -25536-3 0  9997
2 42955  86.4006  15.1596 0002031  81.4230 278.7196 14.34214965334764
IRIDIUM 100             
1 42956U 17061B   24061.87276352  .00000045  00000+0  88935-5 0  9990
2 42956  86.4008  15.1002 0002137  89.2657 270.8784 14.34217002334766
IRIDIUM 122             
1 42957U 17061C   24061.91081204  .00000406  00000+0  13793-3 0  9995
2 42957  86.4009  15.0824 0002064  91.8144 268.3288 14.34221135334772
IRIDIUM 129             
1 42958U 17061D   24061.93618916  .00000035  00000+0  52890-5 0  9995
2 42958  86.4011  15.1301 0002039  89.1769 270.9661 14.34217624334796
